{"type":"FeatureCollection","features":[{"type":"Feature","geometry":{"type":"Point","coordinates":[12.8003,66.393833]},"properties":{"doc":"do_01kk7w3xb2ebr9ds6kkma6ghhy","entry":"jp_01kk7w3wvvese8r2gt1emshbzy","loknr":15118,"navn":"KALVØYA","title":"66596.01 Kalvøya Midt strømmålinger 2025.pdf.pdf","date":"2026-03-05","method":"pdf-text","mean":14.4,"max":34.8,"depths":[5,17,52,71,72]}},{"type":"Feature","geometry":{"type":"Point","coordinates":[12.8272,66.307517]},"properties":{"doc":"do_01j76pk0hredmabata7p1012jt","entry":"jp_01j76pk0exf1zr9z7fhjw2m3mb","loknr":45292,"navn":"TENNSKJÆRET","title":"Vedlegg nr. 2 - Tennskjæret rapport strømmålinger","date":"2024-01-15","method":"pdf-text","mean":14.2,"max":28.6,"direction":315,"directionName":"nordvest","depths":[5,15,38,50]}},{"type":"Feature","geometry":{"type":"Point","coordinates":[14.430617,67.416317]},"properties":{"doc":"do_01j76nh7g5f88td7k1jf1j167s","entry":"jp_01j76nh75wfzvbsrx9k6gxjnvx","loknr":34997,"navn":"BJØRNØYA","title":"Bjørnøya strømmålinger 5 og 15 m 2023.pdf","date":"2024-01-04","method":"pdf-text","mean":13.8,"max":43.1,"direction":30,"directionName":"nord-nordøst","depths":[5,15,68]}},{"type":"Feature","geometry":{"type":"Point","coordinates":[14.032183,67.421667]},"properties":{"doc":"do_01kqdn9k24e0kr9jbjenzpgaxw","entry":"jp_01jagc1g1ffvz92ee4ve2txfys","loknr":39997,"navn":"HELLIGVÆR Ø","title":"vedlegg 14 Helligvær øst strømrapport ift forrige plassering red (L)(1561982).pdf","date":"2018-04-24","method":"mixed","mean":12,"max":37.6,"direction":180,"directionName":"sør","depths":[5,15,40,64]}},{"type":"Feature","geometry":{"type":"Point","coordinates":[14.032183,67.421667]},"properties":{"doc":"do_01kqdnj7kxeex836mtxc2a4gbg","entry":"jp_01jac0frqcej4ahebxxz0e016d","loknr":39997,"navn":"HELLIGVÆR Ø","title":"Helligvær Øst strømrapport","date":"2017-09-07","method":"mixed","mean":12,"max":37.6,"direction":180,"directionName":"sør","depths":[5,15,40,64]}},{"type":"Feature","geometry":{"type":"Point","coordinates":[13.106117,66.816667]},"properties":{"doc":"do_01j75yrsn5fz3t6jfqh98eempx","entry":"jp_01j75yrscxe4k931v55v7mc276","loknr":45279,"navn":"VERHOLMEN","title":"Vedlegg nr. 2 Strømmåling av 28.02.2023. (64460.01).pdf","date":"2023-09-11","method":"pdf-text","mean":11.4,"max":44.5,"direction":45,"directionName":"nordøst","depths":[5,10,14,17,19,20]}},{"type":"Feature","geometry":{"type":"Point","coordinates":[13.106117,66.816667]},"properties":{"doc":"do_01j75yrrhff1dvt3fw902f83b4","entry":"jp_01j75yrrfnf5jb38qrw5m19wsh","loknr":45279,"navn":"VERHOLMEN","title":"Vedlegg nr. 2 Strømmåling av 28.02.2023. (64460.01)","date":"2023-05-22","method":"pdf-text","mean":11.4,"max":44.5,"direction":45,"directionName":"nordøst","depths":[5,10,14,17,19,20]}},{"type":"Feature","geometry":{"type":"Point","coordinates":[12.575617,66.550333]},"properties":{"doc":"do_01j76837pje3krbf4sr5rtdczd","entry":"jp_01j76837epe0svxwkyvs8bmxjk","loknr":45231,"navn":"SLØNGA","title":"5. Strømmåling","date":"2022-09-23","method":"pdf-text","max":38.8,"byDepth":[{"depth":5,"mean":11.4},{"depth":15,"mean":9.3},{"depth":35,"mean":8.3},{"depth":48,"mean":7.4}],"mean":11.4,"depths":[5,10,15,25,34,35,48,49]}},{"type":"Feature","geometry":{"type":"Point","coordinates":[27.493933,70.81805]},"properties":{"doc":"do_01k0bq7ty1e5na9m0ypvjac1zf","entry":"jp_01jxe8fp2wfcw9wp6bgz8qncx8","loknr":13337,"navn":"HOVDENAKKEN","title":"Strømrapport Hovdenakken 2018.PDF","date":"2025-06-04","method":"mixed","mean":11.2,"max":39.5,"direction":90,"directionName":"øst","depths":[5,15,79,123]}},{"type":"Feature","geometry":{"type":"Point","coordinates":[12.89285,66.292767]},"properties":{"doc":"do_01j76j424re4g8qzakqyyqfjdn","entry":"jp_01j76j414ffx0brw8bh2zgwb6j","loknr":45255,"navn":"SANDVIKA","title":"Vedlegg 6.1.2 Strømrapport Sandvika","date":"2023-09-07","method":"pdf-text","max":35.2,"byDepth":[{"depth":5,"mean":9.6},{"depth":15,"mean":8.1},{"depth":74,"mean":7.4},{"depth":138,"mean":2.9}],"mean":9.6,"depths":[5,15,28,73,74,138,139]}},{"type":"Feature","geometry":{"type":"Point","coordinates":[12.89285,66.292767]},"properties":{"doc":"do_01j76j404aew5vv3hp0e5t9sq5","entry":"jp_01j76j3zynfv7t7392ej92fr18","loknr":45255,"navn":"SANDVIKA","title":"Vedlegg 6.1.2 Strømrapport Sandvika","date":"2023-08-17","method":"pdf-text","max":35.2,"byDepth":[{"depth":5,"mean":9.6},{"depth":15,"mean":8.1},{"depth":74,"mean":7.4},{"depth":138,"mean":2.9}],"mean":9.6,"depths":[5,15,28,73,74,138,139]}},{"type":"Feature","geometry":{"type":"Point","coordinates":[15.9614,68.922683]},"properties":{"doc":"do_01j76nh8m9fzzb818fdyhcd5y1","entry":"jp_01m0w7hm9yev2sq42cj787j7aw","loknr":45301,"navn":"KINNHOLMEN","title":"64140.01 Kinnholmen strømmålinger.pdf","date":"2026-09-03","method":"pdf-text","mean":9.5,"max":48.3,"direction":330,"directionName":"nordvest","depths":[5,15,75,101,102]}},{"type":"Feature","geometry":{"type":"Point","coordinates":[15.9614,68.922683]},"properties":{"doc":"do_01j76nh8m9fzzb818fdyhcd5y1","entry":"jp_01jjkgf0pzfcxswt8yqwey3tg9","loknr":45301,"navn":"KINNHOLMEN","title":"64140.01 Kinnholmen strømmålinger.pdf","date":"2025-01-17","method":"pdf-text","mean":9.5,"max":48.3,"direction":330,"directionName":"nordvest","depths":[5,15,75,101,102]}},{"type":"Feature","geometry":{"type":"Point","coordinates":[12.378267,66.3675]},"properties":{"doc":"do_01j76v10jnfbpbs4adcq3h5q82","entry":"jp_01j76v10gwfqet1gcwmzk6xms5","loknr":20475,"navn":"NAUSTHOLMEN Ø","title":"9.2 Strømrapport, Utslippspunkt, Naustholmen.pdf","date":"2024-05-21","method":"pdf-text","max":40,"byDepth":[{"depth":10,"mean":8.9},{"depth":20,"mean":7.4},{"depth":30,"mean":6.2},{"depth":37,"mean":5.3}],"mean":8.9,"depths":[10,20,30,37,42,43]}},{"type":"Feature","geometry":{"type":"Point","coordinates":[12.73575,66.476117]},"properties":{"doc":"do_01j76tf3v1ezsr0b9ypahjxkhs","entry":"jp_01j76tf2hkewbb1cy2mn6k62jr","loknr":38517,"navn":"MÅVÆR","title":"6. Strømrapport.pdf","date":"2024-04-23","method":"pdf-text","max":39.6,"byDepth":[{"depth":5,"mean":8.9},{"depth":15,"mean":6.2},{"depth":49,"mean":5.5},{"depth":65,"mean":5.5}],"mean":8.9,"depths":[5,15,27,49,65,66]}},{"type":"Feature","geometry":{"type":"Point","coordinates":[16.783583,68.4208]},"properties":{"doc":"do_01j76hnw68fat9kc7rs2n4k9xf","entry":"jp_01j76hnw3cfbtr04t10gx65skp","loknr":45060,"navn":"PUNDSVIK I","title":"Pundsvik strømrapp 2018.pdf","date":"2023-08-18","method":"mixed","mean":8.7,"max":36.7,"direction":300,"directionName":"nordvest","depths":[5,15,71,124,200]}},{"type":"Feature","geometry":{"type":"Point","coordinates":[16.783583,68.4208]},"properties":{"doc":"do_01j76hnw1efrjakspr3y9e1121","entry":"jp_01j76hnvhreat925phdffefy2t","loknr":45060,"navn":"PUNDSVIK I","title":"Pundsvik strømrapp 2018.pdf","date":"2023-07-14","method":"mixed","mean":8.7,"max":36.7,"direction":300,"directionName":"nordvest","depths":[5,15,71,124,200]}},{"type":"Feature","geometry":{"type":"Point","coordinates":[15.212717,68.471533]},"properties":{"doc":"do_01jvza41nvff7art0kn8ba2c49","entry":"jp_01j76441v5edn8xcxnhhgwfkce","loknr":13936,"navn":"SØRVIKA","title":"Sørvika Hydra_Strømrapport sprednigsstrøm og bunnstrøm 2021.pdf.pdf","date":"2022-09-29","method":"mixed","mean":6.9,"direction":180,"directionName":"sør","depths":[55,59,63,65]}},{"type":"Feature","geometry":{"type":"Point","coordinates":[15.212717,68.471533]},"properties":{"doc":"do_01jvza41nvff7art0kn8ba2c49","entry":"jp_01j7643zywfk7tkfzjx2fb43q5","loknr":13936,"navn":"SØRVIKA","title":"Sørvika Hydra_Strømrapport sprednigsstrøm og bunnstrøm 2021.pdf.pdf","date":"2022-09-08","method":"mixed","mean":6.9,"direction":180,"directionName":"sør","depths":[55,59,63,65]}},{"type":"Feature","geometry":{"type":"Point","coordinates":[14.032183,67.421667]},"properties":{"doc":"do_01jx0yfmt1f6ea9yfb3mthdsnh","entry":"jp_01j767b8dbfkss013vnnaghkjk","loknr":39997,"navn":"HELLIGVÆR Ø","title":"Helligvær øst strømrapport til søknad ny plassering red.pdf.pdf","date":"2022-11-02","method":"mixed","mean":6.8,"max":29.7,"direction":30,"directionName":"nordøst","depths":[5,15,35,45,47]}},{"type":"Feature","geometry":{"type":"Point","coordinates":[14.032183,67.421667]},"properties":{"doc":"do_01kqdn5m58emeb7r3r5sdpt9rg","entry":"jp_01jc0c094jfstrwmz1jk4dt1pw","loknr":39997,"navn":"HELLIGVÆR Ø","title":"Helligvær øst strømrapport til søknad ny plassering red.pdf.pdf","date":"2022-08-29","method":"mixed","mean":6.8,"max":29.7,"direction":30,"directionName":"nordøst","depths":[5,15,35,45,47]}},{"type":"Feature","geometry":{"type":"Point","coordinates":[14.032183,67.421667]},"properties":{"doc":"do_01jx0yfmt1f6ea9yfb3mthdsnh","entry":"jp_01j767b6b8f6wt5fwchew00jaj","loknr":39997,"navn":"HELLIGVÆR Ø","title":"Helligvær øst strømrapport til søknad ny plassering red.pdf.pdf","date":"2022-08-29","method":"mixed","mean":6.8,"max":29.7,"direction":30,"directionName":"nordøst","depths":[5,15,35,45,47]}},{"type":"Feature","geometry":{"type":"Point","coordinates":[14.032183,67.421667]},"properties":{"doc":"do_01kqdn9km2efet3qv454ppb2zz","entry":"jp_01jagc1g1ffvz92ee4ve2txfys","loknr":39997,"navn":"HELLIGVÆR Ø","title":"vedlegg 5 Helligvær øst strømrapport til søknad ny plassering red (L)(1561988).pdf","date":"2018-04-24","method":"mixed","mean":6.8,"max":29.7,"direction":30,"directionName":"nordøst","depths":[5,15,35,45,47]}},{"type":"Feature","geometry":{"type":"Point","coordinates":[10.717817,63.84375]},"properties":{"doc":"do_01kqf25hnhehmvbx0tmmz6nntb","entry":"jp_01kfd84m33evttp9fkppsnka86","loknr":45304,"navn":"SALTBUTANGEN","title":"24.09. Strømmåling Saltbutangen.PDF","date":"2026-01-14","method":"pdf-text","byDepth":[{"depth":6,"mean":6.7}],"mean":6.7,"depths":[5,6,25,60,124]}},{"type":"Feature","geometry":{"type":"Point","coordinates":[14.949467,68.305933]},"properties":{"doc":"do_01jatmn65zffpt8axnanbygz60","entry":"jp_01jacnhg0ff8m9ymy6pjdda4dv","loknr":13293,"navn":"MOLGAVLEN","title":"64001.02 Strømmålinger Molgavlen.pdf","date":"2024-10-09","method":"pdf-text","mean":6.4,"max":30.2,"direction":150,"directionName":"sørøst","depths":[5,15,81,107,108]}},{"type":"Feature","geometry":{"type":"Point","coordinates":[12.562867,65.44635]},"properties":{"doc":"do_01j76heptgfdwrrqhxn7xqvmk0","entry":"jp_01j76hep1vfzm9bqeqmgk2907d","loknr":10876,"navn":"ISTERVIKA","title":"1292-8-22S Istervika Strøm 3 mnd","date":"2023-07-12","method":"pdf-text","max":47.4,"byDepth":[{"depth":5,"mean":6.4},{"depth":15,"mean":5.2},{"depth":75,"mean":4.5},{"depth":127,"mean":3.9}],"mean":6.4,"depths":[5,10,15,33,70,75,82,127]}},{"type":"Feature","geometry":{"type":"Point","coordinates":[15.514967,68.729517]},"properties":{"doc":"do_01j76amj8retdsk73mrwstscxx","entry":"jp_01j76amheze74svm3d4jfjdrx4","loknr":45201,"navn":"HOLMEN","title":"62618.01 Holmen strømrapport Inntakspunkt (002).pdf","date":"2022-12-12","method":"mixed","mean":6.2,"max":34.3,"direction":180,"directionName":"sør","depths":[5,18,19]}},{"type":"Feature","geometry":{"type":"Point","coordinates":[12.378267,66.3675]},"properties":{"doc":"do_01j76v11cpefpbd26k1f91grz0","entry":"jp_01j76v10gwfqet1gcwmzk6xms5","loknr":20475,"navn":"NAUSTHOLMEN Ø","title":"9.3 Strømrapport, Inntakspunkt, Naustholmen.pdf","date":"2024-05-21","method":"pdf-text","max":27.3,"byDepth":[{"depth":30,"mean":5.7},{"depth":37,"mean":5.7},{"depth":52,"mean":6.2},{"depth":67,"mean":4.4}],"mean":5.7,"depths":[30,37,52,67,71,72]}},{"type":"Feature","geometry":{"type":"Point","coordinates":[15.514967,68.729517]},"properties":{"doc":"do_01j76amje0e4x961tn4ks1wjz0","entry":"jp_01j76amheze74svm3d4jfjdrx4","loknr":45201,"navn":"HOLMEN","title":"61888.01 Holmen strømrapport.pdf","date":"2022-12-12","method":"mixed","mean":5.5,"max":17,"direction":165,"directionName":"sør","depths":[5,15,20,21,30,32,44]}},{"type":"Feature","geometry":{"type":"Point","coordinates":[15.437417,68.411467]},"properties":{"doc":"do_01j75ystdsez0rgzrff1430sqp","entry":"jp_01j75ysscbevvvda5nbvwcwqdx","loknr":16939,"navn":"FORNES","title":"63066.01 Fornes strømmålinger","date":"2022-04-06","method":"mixed","mean":5.5,"max":23.9,"direction":45,"directionName":"nordøst","depths":[5,15,70,94,140]}},{"type":"Feature","geometry":{"type":"Point","coordinates":[17.081933,68.449233]},"properties":{"doc":"do_01j75ystdsez0rgzrff1430sqp","entry":"jp_01j75ysscbevvvda5nbvwcwqdx","loknr":45298,"navn":"FORNES I","title":"63066.01 Fornes strømmålinger","date":"2022-04-06","method":"mixed","mean":5.5,"max":23.9,"direction":45,"directionName":"nordøst","depths":[5,15,70,94,140]}},{"type":"Feature","geometry":{"type":"Point","coordinates":[15.437417,68.411467]},"properties":{"doc":"do_01j75yss3zengaktya0q6c4jfj","entry":"jp_01j75ysrf3fbkakh36y5znvtw1","loknr":16939,"navn":"FORNES","title":"63066.01 Fornes strømmålinger.pdf","date":"2022-04-05","method":"mixed","mean":5.5,"max":23.9,"direction":45,"directionName":"nordøst","depths":[5,15,70,94,140]}},{"type":"Feature","geometry":{"type":"Point","coordinates":[17.081933,68.449233]},"properties":{"doc":"do_01j75yss3zengaktya0q6c4jfj","entry":"jp_01j75ysrf3fbkakh36y5znvtw1","loknr":45298,"navn":"FORNES I","title":"63066.01 Fornes strømmålinger.pdf","date":"2022-04-05","method":"mixed","mean":5.5,"max":23.9,"direction":45,"directionName":"nordøst","depths":[5,15,70,94,140]}},{"type":"Feature","geometry":{"type":"Point","coordinates":[13.106117,66.816667]},"properties":{"doc":"do_01j75yrsttfy1874y5d1s8fgen","entry":"jp_01j75yrscxe4k931v55v7mc276","loknr":45279,"navn":"VERHOLMEN","title":"Vedlegg nr. 1 Strømrapport - Verholmen - Akvaplan-niva.pdf","date":"2023-09-11","method":"mixed","mean":5,"max":26.2,"direction":60,"directionName":"øst-nordøst","depths":[5]}},{"type":"Feature","geometry":{"type":"Point","coordinates":[13.106117,66.816667]},"properties":{"doc":"do_01j75yrrkqee9sqpqbrjzbw4ff","entry":"jp_01j75yrrfnf5jb38qrw5m19wsh","loknr":45279,"navn":"VERHOLMEN","title":"Vedlegg nr. 1 Strømrapport - Verholmen - Akvaplan-niva","date":"2023-05-22","method":"mixed","mean":5,"max":26.2,"direction":60,"directionName":"øst-nordøst","depths":[5]}},{"type":"Feature","geometry":{"type":"Point","coordinates":[13.106117,66.816667]},"properties":{"doc":"do_01j75yrv6zewp8vp909qhv8jkc","entry":"jp_01j75yrv1jetwv0agq3bs1tfev","loknr":45279,"navn":"VERHOLMEN","title":"Vedlegg nr. 8 Strømrapport - Verholmen - Akvaplan-niva","date":"2021-11-04","method":"mixed","mean":5,"max":26.2,"direction":60,"directionName":"øst-nordøst","depths":[5]}},{"type":"Feature","geometry":{"type":"Point","coordinates":[13.09655,66.587567]},"properties":{"doc":"do_01jjphg258fjz9fk2f7wqx0q34","entry":"jp_01jjkp6nw5evb9y9rfke2w331y","loknr":22796,"navn":"RENGA S","title":"Vedlegg 2 Strømrapport 63487.03 Renga S strømmålinger.pdf","date":"2025-01-23","method":"pdf-text","mean":4.7,"max":11.2,"direction":15,"directionName":"nord-nordøst","depths":[5,67,117,119]}},{"type":"Feature","geometry":{"type":"Point","coordinates":[15.037767,68.844417]},"properties":{"doc":"do_01jjkv3h0kejwa2jt21qx2dmjz","entry":"jp_01j76ccmemf0kv3ppp6h8e0pxa","loknr":39637,"navn":"HORNET","title":"Vedlegg 8 60612.01 Strømrapport_Hornet","date":"2023-11-06","method":"mixed","mean":4.5,"max":21.9,"direction":0,"directionName":"nord","depths":[5,15,37,59,70]}},{"type":"Feature","geometry":{"type":"Point","coordinates":[14.430617,67.416317]},"properties":{"doc":"do_01j76nh7nreghrmnt0tej4scv5","entry":"jp_01j76nh75wfzvbsrx9k6gxjnvx","loknr":34997,"navn":"BJØRNØYA","title":"Strømrapport lokalitet Bjørnøy.pdf","date":"2024-01-04","method":"mixed","mean":4.4,"direction":210,"directionName":"sørvest","depths":[5,45,70]}},{"type":"Feature","geometry":{"type":"Point","coordinates":[14.380617,67.382883]},"properties":{"doc":"do_01kqbs33yhefy9c5rz8ayjmdc8","entry":"jp_01jckag0rdfdztzt6f6j31n9k4","loknr":36817,"navn":"KARISKJÆRET","title":"Strømrapport lokalitet Kariskjæret.pdf","date":"2023-12-04","method":"mixed","mean":4.1,"direction":75,"directionName":"nordøst","depths":[15,44,69]}},{"type":"Feature","geometry":{"type":"Point","coordinates":[14.380617,67.382883]},"properties":{"doc":"do_01kqbs38apebdrmk3j5eb44s9n","entry":"jp_01jc5n8721f1sayr2ztba3mshr","loknr":36817,"navn":"KARISKJÆRET","title":"vedlegg 9 - 6869.01 Strømrapport lokalitet Kariskjæret (2551930).pdf","date":"2020-04-17","method":"mixed","mean":4.1,"direction":75,"directionName":"nordøst","depths":[15,44,69]}},{"type":"Feature","geometry":{"type":"Point","coordinates":[14.380617,67.382883]},"properties":{"doc":"do_01kqbs38apebdrmk3j5eb44s9n","entry":"jp_01jb22nmm1f6hrzneqzaj3zw3p","loknr":36817,"navn":"KARISKJÆRET","title":"vedlegg 9 - 6869.01 Strømrapport lokalitet Kariskjæret (2551930).pdf","date":"2020-03-05","method":"mixed","mean":4.1,"direction":75,"directionName":"nordøst","depths":[15,44,69]}},{"type":"Feature","geometry":{"type":"Point","coordinates":[14.380617,67.382883]},"properties":{"doc":"do_01kqbs7rx5e7ranxm49czvfjh4","entry":"jp_01javm7va0e80s22d0g1hnqv2j","loknr":36817,"navn":"KARISKJÆRET","title":"Vedlegg 9 - 6869.01 Strømrapport lokalitet Kariskjæret (L)(1678937).pdf","date":"2019-01-14","method":"mixed","mean":4.1,"direction":75,"directionName":"nordøst","depths":[15,44,69]}},{"type":"Feature","geometry":{"type":"Point","coordinates":[16.2742,68.244567]},"properties":{"doc":"do_01j75yn8x2ek888wb31nhmy5rj","entry":"jp_01j75yn81der1v0xfnsqzwed3x","loknr":45099,"navn":"GRØNNSTRANDA","title":"Grønnstranda_Strømmålinger 2020_62508","date":"2021-06-02","method":"mixed","mean":3.5,"max":10.6,"direction":255,"directionName":"vest","depths":[5,15,91,112,115]}},{"type":"Feature","geometry":{"type":"Point","coordinates":[16.2742,68.244567]},"properties":{"doc":"do_01j75yn6xrehsrw2n1ykmxzrhe","entry":"jp_01j75yn6kwebfrck431y566akt","loknr":45099,"navn":"GRØNNSTRANDA","title":"Grønnstranda_Strømmålinger 2020_62508","date":"2021-03-17","method":"mixed","mean":3.5,"max":10.6,"direction":255,"directionName":"vest","depths":[5,15,91,112,115]}},{"type":"Feature","geometry":{"type":"Point","coordinates":[22.272083,70.606017]},"properties":{"doc":"do_01jvwkbxm7e20r5yqg2ak5pwdn","entry":"jp_01j762bg3gfyg8p30779hdrd88","loknr":45165,"navn":"VEINES","title":"Vedlegg 12 - Strømmålinger.PDF","date":"2022-04-25","method":"pdf-text","mean":3.3,"max":14.2,"direction":225,"directionName":"sørvest","depths":[21,36]}},{"type":"Feature","geometry":{"type":"Point","coordinates":[15.583833,67.355283]},"properties":{"doc":"do_01kxpgnxpcegxbyqsztt7qa2wf","entry":"jp_01kxpgnx5dewytwyvv4e7941cz","loknr":11264,"navn":"TROLLBUKTA","title":"Strømmåling Trollbukta 2025.pdf.pdf","date":"2026-07-03","method":"pdf-text","max":44,"depths":[1,2,3,5,6]}},{"type":"Feature","geometry":{"type":"Point","coordinates":[12.3703,65.089117]},"properties":{"doc":"do_01jh5d7517f5ts5p90wvbxtvex","entry":"jp_01jgxrzrceexvvneqm9cx5mv32","loknr":45043,"navn":"Brukstomta","title":"Strømmåling SR-TI-Terråk-104332-01-001 (1).pdf","date":"2025-01-03","method":"pdf-text","max":27.5,"depths":[10,93]}},{"type":"Feature","geometry":{"type":"Point","coordinates":[12.3703,65.089117]},"properties":{"doc":"do_01jh5d756gfshrr1x5w8ah5rrp","entry":"jp_01jgxrzrceexvvneqm9cx5mv32","loknr":45043,"navn":"Brukstomta","title":"Strømmåling SR-TI-Terråk-104332-01-001 (1).pdf","date":"2025-01-03","method":"pdf-text","max":27.5,"depths":[10,93]}},{"type":"Feature","geometry":{"type":"Point","coordinates":[12.070533,65.831417]},"properties":{"doc":"do_01jzaady12f3gbfm42rz3snr37","entry":"jp_01jen40a7dfcettwyr3g4mmsk5","loknr":33157,"navn":"SKOGSHOLMEN","title":"vedlegg 4 Strømmåling Skogsholmen 2022","date":"2024-12-06","method":"pdf-text","max":22.8,"depths":[4,5,14,15,30,60,108,130]}},{"type":"Feature","geometry":{"type":"Point","coordinates":[16.088617,69.15765]},"properties":{"doc":"do_01j76w99safdqsq2t966dy69by","entry":"jp_01j76w994hfayby5xvjm0pvhkp","loknr":38897,"navn":"KVALNES","title":"Vedlegg 24 - Strømmåling.pdf","date":"2024-07-29","method":"pdf-text","max":54.1,"depths":[1,3,5,7,38,73]}},{"type":"Feature","geometry":{"type":"Point","coordinates":[12.367067,65.615833]},"properties":{"doc":"do_01j76sr4p1ephv3a8jewk8h95t","entry":"jp_01j76sr48kfvxvdtaqfpv6mvtk","loknr":45259,"navn":"LAUKNES","title":"2022-04-26 - Åkerblå - Strømrapport Vevelstad Settefisk-103951-01-001","date":"2024-05-22","method":"pdf-text","max":32.8,"depths":[4,5,6,31,34,37]}},{"type":"Feature","geometry":{"type":"Point","coordinates":[16.088617,69.15765]},"properties":{"doc":"do_01j75yra66epmrdgt2jrpnehpk","entry":"jp_01j75yr9znf20b9x4yewn3fa73","loknr":38897,"navn":"KVALNES","title":"Vedlegg 18 - Strømrapport - lokalitet Kvalnes","date":"2023-02-27","method":"pdf-text","max":26.9,"depths":[8,11,31]}},{"type":"Feature","geometry":{"type":"Point","coordinates":[11.251133,64.916367]},"properties":{"doc":"do_01j76cx6nhepsvyswb4brdk6nb","entry":"jp_01j76cx6m9es9bzfn1tcjvt71g","loknr":13494,"navn":"FLERENGSTRAND","title":"Vedlegg 2. Strømmåling","date":"2023-01-25","method":"pdf-text","max":52.9,"depths":[5,15,28]}},{"type":"Feature","geometry":{"type":"Point","coordinates":[13.1125,66.800117]},"properties":{"doc":"do_01jx9gztjte90bd5bepjwn9xyx","entry":"jp_01jx9gztdpf11vw5cp57mdm3hy","loknr":45253,"navn":"SNYEN","title":"Vedlegg 3a. Strømrapport Snyen Del 1.pdf.pdf","date":"2022-12-13","method":"pdf-text","max":39.9,"depths":[5,15,22,44,66,82]}},{"type":"Feature","geometry":{"type":"Point","coordinates":[13.1125,66.800117]},"properties":{"doc":"do_01jx9gztjte90bd5bepjwn9xyx","entry":"jp_01j76af0hdedpvx3cv3w4fraz0","loknr":45253,"navn":"SNYEN","title":"Vedlegg 3a. Strømrapport Snyen Del 1.pdf.pdf","date":"2022-12-01","method":"pdf-text","max":39.9,"depths":[5,15,22,44,66,82]}},{"type":"Feature","geometry":{"type":"Point","coordinates":[5.537517,61.923567]},"properties":{"doc":"do_01j767ey8aenrv05bq15ne3qm6","entry":"jp_01j767ey5pe4b9cf7a8cmaka60","loknr":45200,"navn":"MIDTHJELL","title":"STIM rapport 44-2022 Strømundersøkelse Midthjell.pdf","date":"2022-09-10","method":"pdf-text","max":17.4,"depths":[5,34,89,141]}},{"type":"Feature","geometry":{"type":"Point","coordinates":[6.420817,60.431833]},"properties":{"doc":"do_01j7649nnrfectjqw857sje36t","entry":"jp_01j7649mzneg2s4c7vgnx4qj2w","loknr":12172,"navn":"BJØLVEFOSSEN","title":"6.1.2-Strømmålinger Ålvik 2013, Revidert rapport RB 3357.pdf","date":"2022-08-17","method":"mixed","max":39.6,"depths":[3,4,5,7,8,9,16,18]}},{"type":"Feature","geometry":{"type":"Point","coordinates":[6.420817,60.431833]},"properties":{"doc":"do_01j7649rfbfw8bmw98ah2yghsd","entry":"jp_01j7649p68ev3rg3vrmybbxx8h","loknr":12172,"navn":"BJØLVEFOSSEN","title":"6.1.2-Strømmålinger Ålvik 2013, Revidert rapport RB 3357.pdf","date":"2022-08-17","method":"mixed","max":39.6,"depths":[3,4,5,7,8,9,16,18]}},{"type":"Feature","geometry":{"type":"Point","coordinates":[6.420817,60.431833]},"properties":{"doc":"do_01j7649mbbfwfvk7899qskyqrk","entry":"jp_01j7649kgkfyssgcx2vhv207x0","loknr":12172,"navn":"BJØLVEFOSSEN","title":"6.1.2-Strømmålinger Ålvik 2013, Revidert rapport RB 3357.pdf","date":"2022-07-13","method":"mixed","max":39.6,"depths":[3,4,5,7,8,9,16,18]}},{"type":"Feature","geometry":{"type":"Point","coordinates":[7.7725,62.931817]},"properties":{"doc":"do_01jvx9evvcfppbc4g9te3vpf5e","entry":"jp_01j76298zae7395ppnt85j13hs","loknr":45182,"navn":"BATNFJORDEN","title":"Vedlegg 6.1.2 Strømmåling Batnfjorden1221.pdf","date":"2022-03-25","method":"pdf-text","max":50,"depths":[2,4,5,6,9,15,25,100]}},{"type":"Feature","geometry":{"type":"Point","coordinates":[12.902467,66.1652]},"properties":{"doc":"do_01j75ys4hmek38a488rzzvjtjs","entry":"jp_01j75ys4bnf1estk7qj1f5v489","loknr":45192,"navn":"BJØRNVIKA","title":"Vedlegg 3. Strømrapport.pdf","date":"2021-12-10","method":"pdf-text","max":36,"depths":[2,5,15,62,64]}},{"type":"Feature","geometry":{"type":"Point","coordinates":[16.09135,68.47665]},"properties":{"doc":"do_01j75yq16rfh48342c61a3w268","entry":"jp_01j75yq0yrfbfb5m085y0ch8ws","loknr":36497,"navn":"LILLE DJUPFEST","title":"Lille Djupfest Strømrapport 2020 Åkerblå","date":"2021-11-01","method":"pdf-text","max":34.1,"depths":[5,15,54,65]}},{"type":"Feature","geometry":{"type":"Point","coordinates":[15.145283,67.208333]},"properties":{"doc":"do_01kq8eh658emwbvqppc2tvpzbm","entry":"jp_01jay42xfpe7bah175s78frmy0","loknr":13811,"navn":"BREIVIKA","title":"V02_Strømningsrapport (2745698).pdf","date":"2020-07-07","method":"pdf-text","max":34.1,"depths":[4,5,6,9,11,14,15]}},{"type":"Feature","geometry":{"type":"Point","coordinates":[8.085517,59.123983]},"properties":{"doc":"do_01kq8eh658emwbvqppc2tvpzbm","entry":"jp_01jay42xfpe7bah175s78frmy0","loknr":45152,"navn":"BREIVIK","title":"V02_Strømningsrapport (2745698).pdf","date":"2020-07-07","method":"pdf-text","max":34.1,"depths":[4,5,6,9,11,14,15]}},{"type":"Feature","geometry":{"type":"Point","coordinates":[5.721883,59.132517]},"properties":{"doc":"do_01j75z9f70f7tamw8pz677fnbk","entry":"jp_01j75z9f60eccvnwvgn0208kpz","loknr":17357,"navn":"RENNAREN","title":"STRØMRAPPORT-RENNAREN1018-VER01","date":"2019-03-14","method":"pdf-text","max":64.2,"depths":[5,15,18,40,56,117,136]}}]}