{"type":"FeatureCollection","retrieved":"2026-09-23T10:11:31.145Z","source":"https://norsk.lysingsblad.no/nb/kunngjeringar/andre-kunngjeringar","features":[{"type":"Feature","geometry":{"type":"Point","coordinates":[12.77787,66.55695]},"properties":{"id":"280907","url":"https://norsk.lysingsblad.no/nb/kunngjeringar/andre-kunngjeringar/280907","type":"Akvakultur","publisher":"Norcod AS","published":"2026-09-22","deadline":"2026-10-20","kommune":"Rødøy","loknr":45225,"navn":"Selsøy","applicant":"Norcod AS","subject":"Endring av forankringer","caseNo":"2026/746","email":"postmottak@rodoy.kommune.no","doc":null,"text":"I henhold til Lov om akvakultur av 17.6.2005 med forskrifter, legges følgende søknad ut til offentlig innsyn: Søknad om akvakultur i Rødøy kommune i Nordland Søker: Norcod AS Søknaden gjelder: Endring av forankringer Søkt størrelse: Ingen endring Lokalitet: 45225 Selsøy Koordinater: Midtpunkt anlegg N 66º33.417’ Ø 12º46.672’ Kontaktadresse: postmottak@rodoy.kommune.no Søknaden er utlagt til offentlig innsyn ved Rødøy kommune. Eventuelle merknader på denne lokalitetsplasseringen må fremsettes skriftlig og oversendes kommunen innen 20. oktober 2026. Høringsuttalelser merkes med saksnummer 2026/746.","title":"Søknad om akvakultur ved lokalitet 45225 Selsøy i Rødøy kommune i Nordland","place":"7011 TRONDHEIM","placed":"notice"}},{"type":"Feature","geometry":{"type":"Point","coordinates":[14.69032,68.63863]},"properties":{"id":"280889","url":"https://norsk.lysingsblad.no/nb/kunngjeringar/andre-kunngjeringar/280889","type":"Akvakultur","publisher":"Egil Kristoffersen & Sønner AS","published":"2026-09-22","deadline":"2026-10-22","kommune":"Bø","loknr":null,"navn":"Flagskallen","applicant":"Egil Kristoffersen & Sønner AS","subject":"Ny lokalitet","caseNo":null,"email":"post@boe.kommune.no","doc":null,"text":"I henhold til Lov om akvakultur av 17.6.2005 med forskrifter, legges følgende søknad ut til offentlig innsyn: Søknad om akvakultur i Bø kommune i Nordland Søker: Egil Kristoffersen & Sønner AS Søknaden gjelder: Ny lokalitet Søkt størrelse: 3900 tonn MTB Lokalitet: Flagskallen Koordinater: Midtpunkt anlegg N 68º38,318` Ø 14º41,419` Ytterpunkt flåte N 68º38,412` Ø 14º41,057` N 68º38,428` Ø 14º41,066` Kontaktadresse: post@boe.kommune.no Søknaden er utlagt til offentlig innsyn ved Bø kommune. Eventuelle merknader på denne lokalitetsplasseringen må fremsettes skriftlig og oversendes kommunen innen 1 måned fra denne kunngjøringen","title":"Søknad ny akvakulturlokalitet Flagskallen, Bø i Vesterålen","place":"8475 STRAUMSJØEN","placed":"notice"}},{"type":"Feature","geometry":{"type":"Point","coordinates":[8.447833,63.66275]},"properties":{"id":"280862","url":"https://norsk.lysingsblad.no/nb/kunngjeringar/andre-kunngjeringar/280862","type":"Akvakultur","publisher":"Frøya kommune","published":"2026-09-17","deadline":"2026-10-16","kommune":"Frøya","loknr":38997,"navn":"Ilsøya 2","applicant":null,"subject":null,"caseNo":null,"email":"postmottak@froya.kommune.no","doc":null,"text":"Akvakultursøknad - Høring Måsøval Lisens AS søker om økt biomasse på anlegg for matfisk for laks, ørret og regnbueørret på lokalitet 38997 Ilsøya 2, i Frøya kommune. Lokalitetsnummer 38997 Lokalitet Ilsøya 2 Posisjon 63° 39.765′, 8° 26.870′ Nåværende biomasse 3 120 tonn Omsøkt biomasse 4 680 tonn Søknaden gjelder økt biomasse på anlegg av matfisk for laks, ørret og regnbueørret i sjøvann på lokalitet 38997 Ilsøya 2. Arealet blir uendret. I den gjeldende kommuneplanen er arealbruket satt til kombinert formål i sjø og vassdrag med eller uten tilhørende strandsone (FFNAF). Søknaden legges ut til offentlig ettersyn med vedlagte dokumenter i tiden 17. september – 16. oktober på kommunens hjemmeside: www.froya.kommune.no Eventuelle merknader til søknaden sendes til Frøya kommune v/teknisk, postboks 152, 7261 Sistranda eller postmottak@froya.kommune.no innen 16. oktober.","title":"Måsøval Lisens AS søker om økt biomasse på anlegg for matfisk for laks, ørret og regnbueørret på lokalitet 38997 Ilsøya 2, i Frøya kommune","place":"7261 SISTRANDA","placed":"register"}},{"type":"Feature","geometry":{"type":"Point","coordinates":[6.69775,62.66422]},"properties":{"id":"280811","url":"https://norsk.lysingsblad.no/nb/kunngjeringar/andre-kunngjeringar/280811","type":"Akvakultur","publisher":"Molde kommune","published":"2026-09-17","deadline":"2026-10-20","kommune":"Molde","loknr":12260,"navn":"Juvika","applicant":null,"subject":null,"caseNo":null,"email":"postmottak@molde.kommune.no","doc":null,"text":"Prophylaxia AS søker om endring på akvakulturlokalitet 12260 Juvika, i Molde kommune. Søknaden gjelder utvidelse av maksimalt tillatt biomasse fra 780 til 3 120 tonn ved eksisterende lokalitet og justering av anleggsramme, fôrflåte og fortøyningssystem. Juvika ligger ved Juvikneset sør for Midsund i Midfjorden. Koordinater : Senterpunkt anlegg: 62° 39.853’ 6° 41.865’ Les mer og gi innspill på molde.kommune.no/horinger Innspill kan og sendes via e-post til postmottak@molde.kommune.no , eller per post til: Molde kommune Rådhusplassen 1 6413 Molde Frist for å komme med innspill er 20. oktober 2026","title":"Prophylaxia AS søker om endring på akvakulturlokalitet 12260 Juvika, i Molde kommune","place":"6413 MOLDE","placed":"notice"}},{"type":"Feature","geometry":{"type":"Point","coordinates":[17.440567,69.00265]},"properties":{"id":"280842","url":"https://norsk.lysingsblad.no/nb/kunngjeringar/andre-kunngjeringar/280842","type":"Akvakultur","publisher":"Dyrøy kommune","published":"2026-09-16","deadline":"2026-10-14","kommune":"Dyrøy","loknr":35317,"navn":"Litjevika","applicant":null,"subject":"Endring av biomasse","caseNo":null,"email":"postmottak@dyroy.kommune.no","doc":null,"text":"I henhold til Lov om akvakultur av 17.6.2005 med forskrifter, legges følgende søknad ut til offentlig innsyn: Søknad om akvakultur i Dyrøy Kommune i Troms Søker: Nordlaks Havbruk AS org. nr. 929 911 946 Søknaden gjelder: Endring av biomasse Lokalitet: 35317 Litjevika Koordinater: Midtpunkt anlegg 69o 01,059 N / 17o 26,434 Ø Ytterpunkt fôrflåte 69o 00,120 N / 17o 26,153 Ø 69o 00,152 N / 17o 26,153 Ø Kontaktadresse: postmottak@dyroy.kommune.no Kontaktperson i Nordlaks Havbruk AS: Remi Mathisen ( remi@nordlaks.no ) Søknaden er utlagt til offentlig innsyn ved Dyrøy kommunes hjemmeside www.Dyroy.kommune.no . Eventuelle merknader på søknaden må fremsettes skriftlig og oversendes kommunen innen 4 uker fra denne kunngjøringen.","title":"Nordlaks Havbruk AS søker endring av biomasse ved lokalitet 35317 Litjevika","place":"9311 BRØSTADBOTN","placed":"register"}},{"type":"Feature","geometry":{"type":"Point","coordinates":[16.701367,68.9288]},"properties":{"id":"280799","url":"https://norsk.lysingsblad.no/nb/kunngjeringar/andre-kunngjeringar/280799","type":"Akvakultur","publisher":"SalMar Oppdrett AS","published":"2026-09-16","deadline":"2026-10-16","kommune":"Harstad","loknr":31397,"navn":"Oterneset","applicant":null,"subject":null,"caseNo":null,"email":"postmottak@harstad.kommune.no","doc":null,"text":"I henhold til Lov om akvakultur med forskrifter, legges følgende søknad ut til offentlig ettersyn: Søker: SalMar Oppdrett AS. Søknaden gjelder: Ekstra flåteplassering og justert midtpunkt for anleggsrammen. Lokalitet: 31397 Oterneset. Koordinater midtpunkt: N 68 ° 55.729′, Ø 16 ° 42.079′ Kontaktperson SalMar Oppdrett AS: Jens-Vidar Fjellstad Viken, tlf: 97 01 68 48. Søknaden er lagt til offentlig ettersyn på Harstad kommune sin hjemmeside www.harstad.kommune.no . Eventuelle merknader må fremsettes skriftlig og oversendes kommunen innen 1 måned fra denne kunngjøringen. Merknader kan sendes til kommunens e-postadresse postmottak@harstad.kommune.no eller til kommunens postadresse: Harstad kommune, c/o Postmottak, Postboks 1000, 9479 Harstad. For nærmere informasjon vedrørende saksgangen, se følgende nettadresse: https://www.fiskeridir.no/Akvakultur/Tildeling-og-tillatelser/akvakultursoknader-hvordan-foregar-tildelingsprosessen","title":"Søknad om ekstra flåteplassering - lokalitet 31397 Oterneset i Harstad kommune","place":"9425 SANDSØY","placed":"register"}},{"type":"Feature","geometry":{"type":"Point","coordinates":[4.808867,60.797933]},"properties":{"id":"280721","url":"https://norsk.lysingsblad.no/nb/kunngjeringar/andre-kunngjeringar/280721","type":"Akvakultur","publisher":"Austrheim kommune","published":"2026-09-09","deadline":null,"kommune":"Austrheim","loknr":37637,"navn":null,"applicant":null,"subject":null,"caseNo":null,"email":"post@austrheim.kommune.no","doc":null,"text":"Verksemda Ode AS søker mindre endring av anleggsarealet, samt endring på fortøyningane på torskelokaliteten Trøvika (lok. nr. 37637) i Austrheim kommune. Søknaden gjev ingen endringar i godkjent biomasse ved anlegget. Søknad er i tråd med kommuneplan sin arealdel for sjøområdet her. Utvidinga av anlegget vert om lag 50 meter i vestleg retning og 15 meter sørover, merdområdet vert 150 x 150 meter. Fortøyingane vert tilpassa dette. På heimesida til Austrheim kommune kan du lesa alle søknadsdokumenta. Merknad til søknaden må sendast til Austrheim kommune innan 8. oktober 2026 til e-post: post@austrheim.kommune.no","title":"Søknad om endring av anleggsramme og fortøyningar for torskeoppdrettet i Trøvika, lokalitetsnr. 37637 - Austrheim kommune","place":"5943 AUSTRHEIM","placed":"register"}},{"type":"Feature","geometry":{"type":"Point","coordinates":[12.3847,65.9543]},"properties":{"id":"280689","url":"https://norsk.lysingsblad.no/nb/kunngjeringar/andre-kunngjeringar/280689","type":"Akvakultur","publisher":"Alstahaug kommune","published":"2026-09-07","deadline":"2026-10-05","kommune":"Alstahaug","loknr":null,"navn":"Valløya","applicant":null,"subject":"Ny lokalitet for laks, ørret og regnbueørret","caseNo":null,"email":null,"doc":null,"text":"I henhold til Lov om akvakultur av 17.6.2005 med forskrifter, legges følgende søknad ut til offentlig innsyn: Søknad om akvakultur i Alstahaug kommune i Nordland Søker: Kobbvåglaks AS org. nr. 937 875 312 Søknaden gjelder: Ny lokalitet for laks, ørret og regnbueørret Søkt størrelse: 2608 tonn MTB Lokalitet: Valløya Koordinater: Midtpunkt anlegg N 65º57,258` Ø 12º23,082` Søknaden er utlagt til offentlig innsyn ved Alstahaug kommune. Eventuelle merknader på denne lokalitetsplasseringen må fremsettes skriftlig og oversendes kommunen innen 4 uker fra denne kunngjøringen.","title":"Kobbvåglaks AS søker ny lokalitet for laks, ørret og regnbueørret ved lokalitet Valløya","place":"8800 SANDNESSJØEN","placed":"notice"}},{"type":"Feature","geometry":{"type":"Point","coordinates":[13.52447,66.5575]},"properties":{"id":"280587","url":"https://norsk.lysingsblad.no/nb/kunngjeringar/andre-kunngjeringar/280587","type":"Kunngjøring","publisher":"Mowi Seawater Norway AS","published":"2026-09-01","deadline":"2026-10-01","kommune":"Rødøy","loknr":35977,"navn":"Lian","applicant":"Mowi Seawater Norway AS","subject":"arealendring","caseNo":null,"email":"postmottak@rodoy.kommune.no","doc":null,"text":"Poststed 8185 VÅGAHOLMEN Publisert dato 01.09.2026 Utlyser Mowi Seawater Norway AS Kunngjøring henhold til Lov om akvakultur av 17.6.2005 med forskrifter, legges følgende søknad ut til offentlig innsyn: Søknad om akvakultur i Rødøy kommune i Nordland Søker: Mowi Seawater Norway AS Søknaden gjelder: arealendring Søkt størrelse: 3900 tonn MTB - uendret Lokalitet: Lian Koordinater: Midtpunkt anlegg N 66º33,450` Ø 13º31,468` Kontaktadresse: postmottak@rodoy.kommune.no Søknaden er utlagt til offentlig innsyn ved Rødøy kommunes hjemmeside. Eventuelle merknader på denne lokalitetsplasseringen må fremsettes skriftlig og oversendes kommunen innen 01.10.2026.","title":"Søknad akvakultur i Rødøy kommune - Arealendring ved lokalitet 35997 Lian","place":"8185 VÅGAHOLMEN","placed":"notice"}},{"type":"Feature","geometry":{"type":"Point","coordinates":[13.20658,66.58215]},"properties":{"id":"280585","url":"https://norsk.lysingsblad.no/nb/kunngjeringar/andre-kunngjeringar/280585","type":"Kunngjøring","publisher":"Mowi Seawater Norway AS","published":"2026-09-01","deadline":"2026-10-01","kommune":"Rødøy","loknr":45080,"navn":"Hestvik","applicant":"Mowi Seawater Norway AS","subject":"areal og biomasseendring","caseNo":null,"email":"postmottak@rodoy.kommune.no","doc":null,"text":"Poststed 8185 VÅGAHOLMEN Publisert dato 01.09.2026 Utlyser Mowi Seawater Norway AS Kunngjøring I henhold til Lov om akvakultur av 17.6.2005 med forskrifter, legges følgende søknad ut til offentlig innsyn: Søknad om akvakultur i Rødøy kommune i Nordland Søker: Mowi Seawater Norway AS Søknaden gjelder: areal og biomasseendring Søkt størrelse: 5400 tonn MTB Lokalitet: Hestvik Koordinater: Midtpunkt anlegg N 66º34,929` Ø 13º12,395` Kontaktadresse: postmottak@rodoy.kommune.no Søknaden er utlagt til offentlig innsyn ved Rødøy kommunes hjemmeside. Eventuelle merknader på denne lokalitetsplasseringen må fremsettes skriftlig og oversendes kommunen innen 01.10.2026","title":"Søknad akvakultur i Rødøy kommune - Arealendring og MTB-økning ved lokalitet 45080 Hestvik","place":"8185 VÅGAHOLMEN","placed":"notice"}},{"type":"Feature","geometry":{"type":"Point","coordinates":[21.828983,69.851983]},"properties":{"id":"280566","url":"https://norsk.lysingsblad.no/nb/kunngjeringar/andre-kunngjeringar/280566","type":"Akvakultur","publisher":"Mowi Seawater Norway AS","published":"2026-08-31","deadline":"2026-09-25","kommune":"Kvænangen","loknr":10804,"navn":"Karvika","applicant":"Mowi Seawater Norway AS","subject":"Arealendring og MTB økning","caseNo":null,"email":"post@kvanangen.kommune.no","doc":null,"text":"I henhold til Lov om akvakultur av 17.6.2005 med forskrifter, legges følgende søknad ut til offentlig innsyn: Søknad akvakultur i Kvænangen kommune Søker: Mowi Seawater Norway AS Søknaden gjelder: Arealendring og MTB økning Søkt størrelse: 3 900 tonn MTB Lokalitet: 10804 Karvika Koordinater midtpunkt : 69° 51.146N 21° 49.793Ø Kontaktadresse: post@kvanangen.kommune.no Søknaden er utlagt til offentlig innsyn ved Kvænangen kommunes hjemmeside. Eventuelle merknader til denne lokalitetsplasseringen må fremsettes skriftlig og oversendes til kommunen innen 25.09.2026.","title":"Søknad akvakultur i Kvænangen kommune - Arealendring og MTB økning ved lokalitet 10804 Karvika","place":"9161 BURFJORD","placed":"register"}},{"type":"Feature","geometry":{"type":"Point","coordinates":[8.5278,63.82483]},"properties":{"id":"280550","url":"https://norsk.lysingsblad.no/nb/kunngjeringar/andre-kunngjeringar/280550","type":"Akvakultur","publisher":"Frøya kommune","published":"2026-08-31","deadline":"2026-09-28","kommune":"Frøya","loknr":45244,"navn":"Hingsskjæret","applicant":null,"subject":null,"caseNo":null,"email":"postmottak@froya.kommune.no","doc":null,"text":"Mowi Seawater Norway AS søker om å endre flåteplassering på lokalitet Hingsskjæret i Frøya kommune. Søknaden gjelder ny plassering av flåte på anlegg for laks, ørret og regnbueørret i sjøvann på lokalitet 45244 Hingsskjæret. Selskapet søker om å flytte flåteplasseringen lengre mot vest, for å oppnå bedre skjerming mot vær og bølger fra østlig og sør-vestlig retning. Søknaden har søknadsnummer SP-2026-002623 i Fiskeridirektoratet sin søknadsportal. Lokalitetsnummer - 45244 Lokalitetsnavn - Hingsskjæret Nåværende midtpunkt - 63° 49.503′, 8° 31.700′ Foreslått midtpunkt - 63° 49.490’ 8° 31.668’ I den gjeldende kommuneplanen er arealbruket satt til kombinert formål i sjø og vassdrag med eller uten tilhørende strandsone (FFNAF). Søknaden legges ut til offentlig ettersyn med vedlagte dokumenter i tiden 31.august – 28.september, på kommunens hjemmeside: www.froya.kommune.no . Eventuelle merknader til søknaden sendes til Frøya kommune v/teknisk, postboks 152, 7261 Sistranda eller postmottak@froya.kommune.no innen 28.september 2026.","title":"Mowi Seawater Norway AS søker om å endre flåteplassering på lokalitet Hingsskjæret i Frøya kommune.","place":"7261 SISTRANDA","placed":"notice"}},{"type":"Feature","geometry":{"type":"Point","coordinates":[8.4092,63.81967]},"properties":{"id":"280548","url":"https://norsk.lysingsblad.no/nb/kunngjeringar/andre-kunngjeringar/280548","type":"Akvakultur","publisher":"Frøya kommune","published":"2026-08-31","deadline":"2026-09-28","kommune":"Frøya","loknr":36877,"navn":"Munkskjæra","applicant":null,"subject":null,"caseNo":null,"email":"postmottak@froya.kommune.no","doc":null,"text":"Mowi Seawater Norway AS søker om å endre flåteplassering på lokalitet Munkskjæra i Frøya kommune. Søknaden gjelder ny plassering av flåte på anlegg for laks, ørret og regnbueørret i sjøvann på lokalitet 36877 Munkskjæra. Selskapet søker om å flytte flåteplasseringen lengre mot øst, for å oppnå bedre skjerming mot vær og bølger fra østlig og sør-vestlig retning. Søknaden har søknadsnummer SP-2026-002579 i Fiskeridirektoratet sin søknadsportal. Lokalitetsnummer - 36877 Lokalitetsnavn - Munksjæra Nåværende midtpunkt - 63° 49.181′, 8° 24.529′ Foreslått midtpunkt - 63° 49.180’ 8° 24.552’ I den gjeldende kommuneplanen er arealbruket satt til kombinert formål i sjø og vassdrag med eller uten tilhørende strandsone (FFNAF). Søknaden legges ut til offentlig ettersyn med vedlagte dokumenter i tiden 31.august – 28.september , på kommunens hjemmeside: www.froya.kommune.no . Eventuelle merknader til søknaden sendes til Frøya kommune v/teknisk, postboks 152, 7261 Sistranda eller postmottak@froya.kommune.no innen 28.september 2026.","title":"Mowi Seawater Norway AS søker om å endre flåteplassering på lokalitet Munkskjæra i Frøya kommune","place":"7261 SISTRANDA","placed":"notice"}},{"type":"Feature","geometry":{"type":"Point","coordinates":[7.580517,62.928533]},"properties":{"id":"280520","url":"https://norsk.lysingsblad.no/nb/kunngjeringar/andre-kunngjeringar/280520","type":"Akvakultur","publisher":"Hustadvika kommune","published":"2026-08-31","deadline":null,"kommune":"Hustadvika","loknr":28776,"navn":"Krekvikbogen","applicant":null,"subject":null,"caseNo":null,"email":null,"doc":"https://norsk.lysingsblad.no/sites/lysningsblad/files/2026-08/Hustadvika_kommune_Krekvikbogen.pdf","text":"nad om tillatelse til endring av areal på anlegg for kveite i sjøvann - Lokalitet Krekvikbogen i Hustadvika kommune Type Akvakultur Poststed 6440 ELNESVÅGEN Publisert dato 31.08.2026 Utlyser Hustadvika kommune Dokument Klikk her for å laste ned dokumentet Hustadvika_kommune_Krekvikbogen.pdf","title":"Søknad om tillatelse til endring av areal på anlegg for kveite i sjøvann - Lokalitet Krekvikbogen i Hustadvika kommune","place":"6440 ELNESVÅGEN","placed":"register"}},{"type":"Feature","geometry":{"type":"Point","coordinates":[5.64105,60.223267]},"properties":{"id":"280529","url":"https://norsk.lysingsblad.no/nb/kunngjeringar/andre-kunngjeringar/280529","type":"Akvakultur","publisher":"Bolaks Sjø AS","published":"2026-08-28","deadline":"2026-09-30","kommune":"Bjørnafjorden","loknr":10324,"navn":"Gjerdeviksflua","applicant":null,"subject":null,"caseNo":"2026/7043","email":null,"doc":null,"text":"Bolaks Sjø AS søkjer om endring av lokaliteten 10 324 Gjerdeviksflua. Lokaliteten vert søkt endra frå stålanlegg med seks produksjonseiningar og integrert fôrflåte, til eit ringanlegg med 7 produksjonseiningar 100x100 samt fôrflåte. Det vert ikkje søkt om auka biomasse, og endringa er i samsvar med kommunedelplan for akvakultur. Uttalefrist er 30. september 2026. Eventuelle merknadar vert sendt Bjørnafjorden kommune, merk saksnr 2026/7043.","title":"Bolaks Sjø AS søkjer om endring av lokaliteten 10 324 Gjerdeviksflua, Bjørnafjorden kommune","place":"5640 EIKELANDSOSEN","placed":"register"}}],"skipped":["280802","280564"]}